[{"OBJECT_NAME":"STARLINK-35250","OBJECT_ID":"2025-207M","EPOCH":"2026-03-09T18:04:32.435616","MEAN_MOTION":15.05641543,"ECCENTRICITY":0.00012259,"INCLINATION":97.6026,"RA_OF_ASC_NODE":138.767,"ARG_OF_PERICENTER":136.4166,"MEAN_ANOMALY":223.7158,"EPHEMERIS_TYPE":0,"CLASSIFICATION_TYPE":"U","NORAD_CAT_ID":65603,"ELEMENT_SET_NO":999,"REV_AT_EPOCH":2827,"BSTAR":0.00017022586,"MEAN_MOTION_DOT":2.396e-5,"MEAN_MOTION_DDOT":0},{"OBJECT_NAME":"SL-24 R\/B","OBJECT_ID":"2007-026B","EPOCH":"2026-03-09T22:40:02.756640","MEAN_MOTION":14.45860602,"ECCENTRICITY":0.0332074,"INCLINATION":97.4507,"RA_OF_ASC_NODE":51.0844,"ARG_OF_PERICENTER":307.0569,"MEAN_ANOMALY":107.0995,"EPHEMERIS_TYPE":0,"CLASSIFICATION_TYPE":"U","NORAD_CAT_ID":31699,"ELEMENT_SET_NO":999,"REV_AT_EPOCH":98518,"BSTAR":0.00024180062,"MEAN_MOTION_DOT":1.655e-5,"MEAN_MOTION_DDOT":0}]
